SL-3 R/B                
1 13403U 82079B   26052.91591470  .00006639  00000+0  26657-3 0  9990
2 13403  81.1460 211.6976 0024425 218.2406 141.7095 15.24533082375291
SL-14 R/B               
1 13553U 82092B   26052.76922607  .00000458  00000+0  48619-4 0  9990
2 13553  82.5712 156.2866 0020177 358.4248 116.6201 14.86647906326569
SL-3 R/B                
1 13819U 83010B   26052.90399835  .00014888  00000+0  30525-3 0  9991
2 13819  81.1045  21.5900 0018661 100.7809 259.5538 15.45728714355506
SL-3 R/B                
1 14208U 83075B   26052.94420301  .00010585  00000+0  28374-3 0  9991
2 14208  97.6140  56.9318 0019765 287.9951  71.9139 15.37986319327739
COSMOS 1536             
1 14699U 84013A   26052.69607732  .00005255  00000+0  21784-3 0  9991
2 14699  82.5450 123.7447 0013603 344.6786  15.4037 15.23587819270181
SL-14 R/B               
1 14820U 84027B   26052.93610375  .00000348  00000+0  36919-4 0  9991
2 14820  82.5382 259.7919 0018663  30.0860 330.1424 14.85958627245292
SL-8 R/B                
1 15483U 85006B   26052.79517265  .00000122  00000+0  49037-4 0  9998
2 15483  74.0449 290.3975 0019074 211.6035 216.7774 14.37774327151742
SL-12 R/B(2)            
1 15772U 85042D   26052.67592824  .00000125  00000+0  77673-4 0  9990
2 15772  71.1077 121.5629 0034129 154.1273  12.4508 14.21977818112119
SL-14 R/B               
1 15945U 85069B   26052.92565080  .00000462  00000+0  49458-4 0  9997
2 15945  82.5254  39.7574 0017310 242.6176 117.3280 14.86412430170493
SL-16 R/B               
1 16182U 85097B   26052.75435330  .00000200  00000+0  12444-3 0  9991
2 16182  71.0032 174.1000 0009710 277.8677 187.4721 14.16595214 84973
SL-14 R/B               
1 16496U 86006B   26052.70494299  .00000500  00000+0  50555-4 0  9993
2 16496  82.5244 274.7846 0075774 326.7126  32.9336 14.86792164146834
COSMOS 1743             
1 16719U 86034A   26052.52004818  .00030756  00000+0  42016-3 0  9994
2 16719  82.5304  90.7859 0003805  13.1295 347.0058 15.57295215177737
