CCSDS_OMM_VERS = 2.0
CREATION_DATE  = 
ORIGINATOR     = 

OBJECT_NAME    = SL-3 R/B
OBJECT_ID      = 1982-079B
CENTER_NAME    = EARTH
REF_FRAME      = TEME
TIME_SYSTEM    = UTC
MEAN_ELEMENT_THEORY = SGP/SGP4

EPOCH          = 2026-02-21T21:58:55.030080
MEAN_MOTION    = 15.24533082
ECCENTRICITY   = .00244252
INCLINATION    = 81.1460
RA_OF_ASC_NODE = 211.6976
ARG_OF_PERICENTER = 218.2406
MEAN_ANOMALY   = 141.7095

EPHEMERIS_TYPE = 0
CLASSIFICATION_TYPE = U
NORAD_CAT_ID   = 13403
ELEMENT_SET_NO = 999
REV_AT_EPOCH   = 37529
BSTAR          = .26656757E-3
MEAN_MOTION_DOT = .6639E-4
MEAN_MOTION_DDOT = 0

CCSDS_OMM_VERS = 2.0
CREATION_DATE  = 
ORIGINATOR     = 

OBJECT_NAME    = SL-14 R/B
OBJECT_ID      = 1982-092B
CENTER_NAME    = EARTH
REF_FRAME      = TEME
TIME_SYSTEM    = UTC
MEAN_ELEMENT_THEORY = SGP/SGP4

EPOCH          = 2026-02-21T18:27:41.132448
MEAN_MOTION    = 14.86647906
ECCENTRICITY   = .00201775
INCLINATION    = 82.5712
RA_OF_ASC_NODE = 156.2866
ARG_OF_PERICENTER = 358.4248
MEAN_ANOMALY   = 116.6201

EPHEMERIS_TYPE = 0
CLASSIFICATION_TYPE = U
NORAD_CAT_ID   = 13553
ELEMENT_SET_NO = 999
REV_AT_EPOCH   = 32656
BSTAR          = .48619017E-4
MEAN_MOTION_DOT = .458E-5
MEAN_MOTION_DDOT = 0

CCSDS_OMM_VERS = 2.0
CREATION_DATE  = 
ORIGINATOR     = 

OBJECT_NAME    = SL-3 R/B
OBJECT_ID      = 1983-010B
CENTER_NAME    = EARTH
REF_FRAME      = TEME
TIME_SYSTEM    = UTC
MEAN_ELEMENT_THEORY = SGP/SGP4

EPOCH          = 2026-02-21T21:41:45.457440
MEAN_MOTION    = 15.45728714
ECCENTRICITY   = .0018661
INCLINATION    = 81.1045
RA_OF_ASC_NODE = 21.5900
ARG_OF_PERICENTER = 100.7809
MEAN_ANOMALY   = 259.5538

EPHEMERIS_TYPE = 0
CLASSIFICATION_TYPE = U
NORAD_CAT_ID   = 13819
ELEMENT_SET_NO = 999
REV_AT_EPOCH   = 35550
BSTAR          = .30525435E-3
MEAN_MOTION_DOT = .14888E-3
MEAN_MOTION_DDOT = 0

CCSDS_OMM_VERS = 2.0
CREATION_DATE  = 
ORIGINATOR     = 

OBJECT_NAME    = SL-3 R/B
OBJECT_ID      = 1983-075B
CENTER_NAME    = EARTH
REF_FRAME      = TEME
TIME_SYSTEM    = UTC
MEAN_ELEMENT_THEORY = SGP/SGP4

EPOCH          = 2026-02-21T22:39:39.140064
MEAN_MOTION    = 15.37986319
ECCENTRICITY   = .00197656
INCLINATION    = 97.6140
RA_OF_ASC_NODE = 56.9318
ARG_OF_PERICENTER = 287.9951
MEAN_ANOMALY   = 71.9139

EPHEMERIS_TYPE = 0
CLASSIFICATION_TYPE = U
NORAD_CAT_ID   = 14208
ELEMENT_SET_NO = 999
REV_AT_EPOCH   = 32773
BSTAR          = .28374275E-3
MEAN_MOTION_DOT = .10585E-3
MEAN_MOTION_DDOT = 0

CCSDS_OMM_VERS = 2.0
CREATION_DATE  = 
ORIGINATOR     = 

OBJECT_NAME    = COSMOS 1536
OBJECT_ID      = 1984-013A
CENTER_NAME    = EARTH
REF_FRAME      = TEME
TIME_SYSTEM    = UTC
MEAN_ELEMENT_THEORY = SGP/SGP4

EPOCH          = 2026-02-21T16:42:21.080448
MEAN_MOTION    = 15.23587819
ECCENTRICITY   = .0013603
INCLINATION    = 82.5450
RA_OF_ASC_NODE = 123.7447
ARG_OF_PERICENTER = 344.6786
MEAN_ANOMALY   = 15.4037

EPHEMERIS_TYPE = 0
CLASSIFICATION_TYPE = U
NORAD_CAT_ID   = 14699
ELEMENT_SET_NO = 999
REV_AT_EPOCH   = 27018
BSTAR          = .21783697E-3
MEAN_MOTION_DOT = .5255E-4
MEAN_MOTION_DDOT = 0

CCSDS_OMM_VERS = 2.0
CREATION_DATE  = 
ORIGINATOR     = 

OBJECT_NAME    = SL-14 R/B
OBJECT_ID      = 1984-027B
CENTER_NAME    = EARTH
REF_FRAME      = TEME
TIME_SYSTEM    = UTC
MEAN_ELEMENT_THEORY = SGP/SGP4

EPOCH          = 2026-02-21T22:27:59.364000
MEAN_MOTION    = 14.85958627
ECCENTRICITY   = .0018663
INCLINATION    = 82.5382
RA_OF_ASC_NODE = 259.7919
ARG_OF_PERICENTER = 30.0860
MEAN_ANOMALY   = 330.1424

EPHEMERIS_TYPE = 0
CLASSIFICATION_TYPE = U
NORAD_CAT_ID   = 14820
ELEMENT_SET_NO = 999
REV_AT_EPOCH   = 24529
BSTAR          = .36919247E-4
MEAN_MOTION_DOT = .348E-5
MEAN_MOTION_DDOT = 0

CCSDS_OMM_VERS = 2.0
CREATION_DATE  = 
ORIGINATOR     = 

OBJECT_NAME    = SL-8 R/B
OBJECT_ID      = 1985-006B
CENTER_NAME    = EARTH
REF_FRAME      = TEME
TIME_SYSTEM    = UTC
MEAN_ELEMENT_THEORY = SGP/SGP4

EPOCH          = 2026-02-21T19:05:02.916960
MEAN_MOTION    = 14.37774327
ECCENTRICITY   = .00190744
INCLINATION    = 74.0449
RA_OF_ASC_NODE = 290.3975
ARG_OF_PERICENTER = 211.6035
MEAN_ANOMALY   = 216.7774

EPHEMERIS_TYPE = 0
CLASSIFICATION_TYPE = U
NORAD_CAT_ID   = 15483
ELEMENT_SET_NO = 999
REV_AT_EPOCH   = 15174
BSTAR          = .49037051E-4
MEAN_MOTION_DOT = .122E-5
MEAN_MOTION_DDOT = 0

CCSDS_OMM_VERS = 2.0
CREATION_DATE  = 
ORIGINATOR     = 

OBJECT_NAME    = SL-12 R/B(2)
OBJECT_ID      = 1985-042D
CENTER_NAME    = EARTH
REF_FRAME      = TEME
TIME_SYSTEM    = UTC
MEAN_ELEMENT_THEORY = SGP/SGP4

EPOCH          = 2026-02-21T16:13:20.199936
MEAN_MOTION    = 14.21977818
ECCENTRICITY   = .0034129
INCLINATION    = 71.1077
RA_OF_ASC_NODE = 121.5629
ARG_OF_PERICENTER = 154.1273
MEAN_ANOMALY   = 12.4508

EPHEMERIS_TYPE = 0
CLASSIFICATION_TYPE = U
NORAD_CAT_ID   = 15772
ELEMENT_SET_NO = 999
REV_AT_EPOCH   = 11211
BSTAR          = .77673E-4
MEAN_MOTION_DOT = .125E-5
MEAN_MOTION_DDOT = 0

CCSDS_OMM_VERS = 2.0
CREATION_DATE  = 
ORIGINATOR     = 

OBJECT_NAME    = SL-14 R/B
OBJECT_ID      = 1985-069B
CENTER_NAME    = EARTH
REF_FRAME      = TEME
TIME_SYSTEM    = UTC
MEAN_ELEMENT_THEORY = SGP/SGP4

EPOCH          = 2026-02-21T22:12:56.229120
MEAN_MOTION    = 14.86412430
ECCENTRICITY   = .00173101
INCLINATION    = 82.5254
RA_OF_ASC_NODE = 39.7574
ARG_OF_PERICENTER = 242.6176
MEAN_ANOMALY   = 117.3280

EPHEMERIS_TYPE = 0
CLASSIFICATION_TYPE = U
NORAD_CAT_ID   = 15945
ELEMENT_SET_NO = 999
REV_AT_EPOCH   = 17049
BSTAR          = .49458393E-4
MEAN_MOTION_DOT = .462E-5
MEAN_MOTION_DDOT = 0

CCSDS_OMM_VERS = 2.0
CREATION_DATE  = 
ORIGINATOR     = 

OBJECT_NAME    = SL-16 R/B
OBJECT_ID      = 1985-097B
CENTER_NAME    = EARTH
REF_FRAME      = TEME
TIME_SYSTEM    = UTC
MEAN_ELEMENT_THEORY = SGP/SGP4

EPOCH          = 2026-02-21T18:06:16.125120
MEAN_MOTION    = 14.16595214
ECCENTRICITY   = .000971
INCLINATION    = 71.0032
RA_OF_ASC_NODE = 174.1000
ARG_OF_PERICENTER = 277.8677
MEAN_ANOMALY   = 187.4721

EPHEMERIS_TYPE = 0
CLASSIFICATION_TYPE = U
NORAD_CAT_ID   = 16182
ELEMENT_SET_NO = 999
REV_AT_EPOCH   = 8497
BSTAR          = .1244432E-3
MEAN_MOTION_DOT = .2E-5
MEAN_MOTION_DDOT = 0

CCSDS_OMM_VERS = 2.0
CREATION_DATE  = 
ORIGINATOR     = 

OBJECT_NAME    = SL-14 R/B
OBJECT_ID      = 1986-006B
CENTER_NAME    = EARTH
REF_FRAME      = TEME
TIME_SYSTEM    = UTC
MEAN_ELEMENT_THEORY = SGP/SGP4

EPOCH          = 2026-02-21T16:55:07.074336
MEAN_MOTION    = 14.86792164
ECCENTRICITY   = .00757745
INCLINATION    = 82.5244
RA_OF_ASC_NODE = 274.7846
ARG_OF_PERICENTER = 326.7126
MEAN_ANOMALY   = 32.9336

EPHEMERIS_TYPE = 0
CLASSIFICATION_TYPE = U
NORAD_CAT_ID   = 16496
ELEMENT_SET_NO = 999
REV_AT_EPOCH   = 14683
BSTAR          = .50555395E-4
MEAN_MOTION_DOT = .5E-5
MEAN_MOTION_DDOT = 0

CCSDS_OMM_VERS = 2.0
CREATION_DATE  = 
ORIGINATOR     = 

OBJECT_NAME    = COSMOS 1743
OBJECT_ID      = 1986-034A
CENTER_NAME    = EARTH
REF_FRAME      = TEME
TIME_SYSTEM    = UTC
MEAN_ELEMENT_THEORY = SGP/SGP4

EPOCH          = 2026-02-21T12:28:52.162752
MEAN_MOTION    = 15.57295215
ECCENTRICITY   = .0003805
INCLINATION    = 82.5304
RA_OF_ASC_NODE = 90.7859
ARG_OF_PERICENTER = 13.1295
MEAN_ANOMALY   = 347.0058

EPHEMERIS_TYPE = 0
CLASSIFICATION_TYPE = U
NORAD_CAT_ID   = 16719
ELEMENT_SET_NO = 999
REV_AT_EPOCH   = 17773
BSTAR          = .42016E-3
MEAN_MOTION_DOT = .30756E-3
MEAN_MOTION_DDOT = 0

